STARLINK-31184          
1 58793U 24012G   26068.59151529 -.00004722  00000+0 -16209-3 0  9997
2 58793  43.0008 165.5727 0001129 192.4014 167.6810 15.27595186121222
TRANSPORTER-12 OBJECT BT
1 62674U 25009BT  26068.71416991  .00013824  00000+0  51029-3 0  9998
2 62674  97.4094 151.5992 0003682 313.5044  46.5889 15.27872239121360
